[
    {
        "Altitude(m)": 560893.9150426256,
        "Argument of Periapsis(deg)": 0.0,
        "Eccentricity": 0.0,
        "Inclination(deg)": 53.0,
        "Latitude(deg)": -25.77637232159585,
        "Longitude(deg)": -1.1866572084998925,
        "Mean Anomaly(deg)": -32.727299999999985,
        "RAAN(deg)": 120.0,
        "Satellite Name": "Starlink Shell 1 548",
        "Satellite Number": 548,
        "Semi-Major Axis(m)": 6931778.249405717,
        "Time(s)": 0
    },
    {
        "Altitude(m)": 560723.3051927263,
        "Argument of Periapsis(deg)": 0.00034857847951123687,
        "Eccentricity": 0.0,
        "Inclination(deg)": 53.0,
        "Latitude(deg)": -25.30741138656071,
        "Longitude(deg)": -0.7665648064252314,
        "Mean Anomaly(deg)": -32.100468796443344,
        "RAAN(deg)": 119.99948122992252,
        "Satellite Name": "Starlink Shell 1 548",
        "Satellite Number": 548,
        "Semi-Major Axis(m)": 6931778.249405717,
        "Time(s)": 10
    },
    {
        "Altitude(m)": 560553.5101827066,
        "Argument of Periapsis(deg)": 0.0006971569590224737,
        "Eccentricity": 0.0,
        "Inclination(deg)": 53.0,
        "Latitude(deg)": -24.836973822363362,
        "Longitude(deg)": -0.34999903650707637,
        "Mean Anomaly(deg)": -31.473637592886554,
        "RAAN(deg)": 119.99896245984505,
        "Satellite Name": "Starlink Shell 1 548",
        "Satellite Number": 548,
        "Semi-Major Axis(m)": 6931778.249405717,
        "Time(s)": 20
    },
    {
        "Altitude(m)": 560384.5916171271,
        "Argument of Periapsis(deg)": 0.0010457354385337105,
        "Eccentricity": 0.0,
        "Inclination(deg)": 53.0,
        "Latitude(deg)": -24.365100580067782,
        "Longitude(deg)": 0.06313050132243912,
        "Mean Anomaly(deg)": -30.84680638932991,
        "RAAN(deg)": 119.99844368976757,
        "Satellite Name": "Starlink Shell 1 548",
        "Satellite Number": 548,
        "Semi-Major Axis(m)": 6931778.249405717,
        "Time(s)": 30
    },
    {
        "Altitude(m)": 560216.6105615698,
        "Argument of Periapsis(deg)": 0.0013943139180449475,
        "Eccentricity": 0.0,
        "Inclination(deg)": 53.0,
        "Latitude(deg)": -23.891831783401997,
        "Longitude(deg)": 0.4729134673915186,
        "Mean Anomaly(deg)": -30.2199751857731,
        "RAAN(deg)": 119.9979249196901,
        "Satellite Name": "Starlink Shell 1 548",
        "Satellite Number": 548,
        "Semi-Major Axis(m)": 6931778.249405717,
        "Time(s)": 40
    },
    {
        "Altitude(m)": 560049.6275152937,
        "Argument of Periapsis(deg)": 0.0017428923975561844,
        "Eccentricity": 0.0,
        "Inclination(deg)": 53.0,
        "Latitude(deg)": -23.417206754608284,
        "Longitude(deg)": 0.8794377892635852,
        "Mean Anomaly(deg)": -29.59314398221643,
        "RAAN(deg)": 119.99740614961262,
        "Satellite Name": "Starlink Shell 1 548",
        "Satellite Number": 548,
        "Semi-Major Axis(m)": 6931778.249405717,
        "Time(s)": 50
    },
    {
        "Altitude(m)": 559883.7023840981,
        "Argument of Periapsis(deg)": 0.002091470877067421,
        "Eccentricity": 0.0,
        "Inclination(deg)": 53.0,
        "Latitude(deg)": -22.94126403976949,
        "Longitude(deg)": 1.282790182982125,
        "Mean Anomaly(deg)": -28.966312778659738,
        "RAAN(deg)": 119.99688737953517,
        "Satellite Name": "Starlink Shell 1 548",
        "Satellite Number": 548,
        "Semi-Major Axis(m)": 6931778.249405717,
        "Time(s)": 60
    },
    {
        "Altitude(m)": 559718.8944535215,
        "Argument of Periapsis(deg)": 0.0024400493565786582,
        "Eccentricity": 0.0,
        "Inclination(deg)": 53.0,
        "Latitude(deg)": -22.46404143361849,
        "Longitude(deg)": 1.68305667557566,
        "Mean Anomaly(deg)": -28.33948157510298,
        "RAAN(deg)": 119.99636860945769,
        "Satellite Name": "Starlink Shell 1 548",
        "Satellite Number": 548,
        "Semi-Major Axis(m)": 6931778.249405717,
        "Time(s)": 70
    },
    {
        "Altitude(m)": 559555.2623623053,
        "Argument of Periapsis(deg)": 0.002788627836089895,
        "Eccentricity": 0.0,
        "Inclination(deg)": 53.0,
        "Latitude(deg)": -21.98557600383419,
        "Longitude(deg)": 2.0803216158262363,
        "Mean Anomaly(deg)": -27.712650371546307,
        "RAAN(deg)": 119.99584983938021,
        "Satellite Name": "Starlink Shell 1 548",
        "Satellite Number": 548,
        "Semi-Major Axis(m)": 6931778.249405717,
        "Time(s)": 80
    },
    {
        "Altitude(m)": 559392.8640761545,
        "Argument of Periapsis(deg)": 0.0031372063156011316,
        "Eccentricity": 0.0,
        "Inclination(deg)": 53.0,
        "Latitude(deg)": -21.505904114822442,
        "Longitude(deg)": 2.474668198931703,
        "Mean Anomaly(deg)": -27.08581916798955,
        "RAAN(deg)": 119.99533106930274,
        "Satellite Name": "Starlink Shell 1 548",
        "Satellite Number": 548,
        "Semi-Major Axis(m)": 6931778.249405717,
        "Time(s)": 90
    },
    {
        "Altitude(m)": 559231.7568618655,
        "Argument of Periapsis(deg)": 0.0034857847951123688,
        "Eccentricity": 0.0,
        "Inclination(deg)": 53.0,
        "Latitude(deg)": -21.025061450990762,
        "Longitude(deg)": 2.8661789920816703,
        "Mean Anomaly(deg)": -26.45898796443285,
        "RAAN(deg)": 119.99481229922527,
        "Satellite Name": "Starlink Shell 1 548",
        "Satellite Number": 548,
        "Semi-Major Axis(m)": 6931778.249405717,
        "Time(s)": 100
    },
    {
        "Altitude(m)": 559071.9972616937,
        "Argument of Periapsis(deg)": 0.003834363274623606,
        "Eccentricity": 0.0,
        "Inclination(deg)": 53.0,
        "Latitude(deg)": -20.54308303952406,
        "Longitude(deg)": 3.2549349479749017,
        "Mean Anomaly(deg)": -25.832156760876167,
        "RAAN(deg)": 119.99429352914778,
        "Satellite Name": "Starlink Shell 1 548",
        "Satellite Number": 548,
        "Semi-Major Axis(m)": 6931778.249405717,
        "Time(s)": 110
    },
    {
        "Altitude(m)": 558913.641068172,
        "Argument of Periapsis(deg)": 0.004182941754134842,
        "Eccentricity": 0.0,
        "Inclination(deg)": 53.0,
        "Latitude(deg)": -20.060003272663987,
        "Longitude(deg)": 3.6410159319341098,
        "Mean Anomaly(deg)": -25.205325557319373,
        "RAAN(deg)": 119.99377475907032,
        "Satellite Name": "Starlink Shell 1 548",
        "Satellite Number": 548,
        "Semi-Major Axis(m)": 6931778.249405717,
        "Time(s)": 120
    },
    {
        "Altitude(m)": 558756.7432991944,
        "Argument of Periapsis(deg)": 0.004531520233646079,
        "Eccentricity": 0.0,
        "Inclination(deg)": 53.0,
        "Latitude(deg)": -19.575855929502403,
        "Longitude(deg)": 4.024501249659436,
        "Mean Anomaly(deg)": -24.578494353762725,
        "RAAN(deg)": 119.99325598899286,
        "Satellite Name": "Starlink Shell 1 548",
        "Satellite Number": 548,
        "Semi-Major Axis(m)": 6931778.249405717,
        "Time(s)": 130
    },
    {
        "Altitude(m)": 558601.358173547,
        "Argument of Periapsis(deg)": 0.0048800987131573164,
        "Eccentricity": 0.0,
        "Inclination(deg)": 53.0,
        "Latitude(deg)": -19.09067419729864,
        "Longitude(deg)": 4.405468662672449,
        "Mean Anomaly(deg)": -23.95166315020599,
        "RAAN(deg)": 119.99273721891538,
        "Satellite Name": "Starlink Shell 1 548",
        "Satellite Number": 548,
        "Semi-Major Axis(m)": 6931778.249405717,
        "Time(s)": 140
    },
    {
        "Altitude(m)": 558447.5390867551,
        "Argument of Periapsis(deg)": 0.005228677192668553,
        "Eccentricity": 0.0,
        "Inclination(deg)": 53.0,
        "Latitude(deg)": -18.604490692327033,
        "Longitude(deg)": 4.7839949171238185,
        "Mean Anomaly(deg)": -23.324831946649297,
        "RAAN(deg)": 119.9922184488379,
        "Satellite Name": "Starlink Shell 1 548",
        "Satellite Number": 548,
        "Semi-Major Axis(m)": 6931778.249405717,
        "Time(s)": 150
    },
    {
        "Altitude(m)": 558295.3385873736,
        "Argument of Periapsis(deg)": 0.00557725567217979,
        "Eccentricity": 0.0,
        "Inclination(deg)": 53.0,
        "Latitude(deg)": -18.11733748026429,
        "Longitude(deg)": 5.1601562730281785,
        "Mean Anomaly(deg)": -22.698000743092585,
        "RAAN(deg)": 119.99169967876044,
        "Satellite Name": "Starlink Shell 1 548",
        "Satellite Number": 548,
        "Semi-Major Axis(m)": 6931778.249405717,
        "Time(s)": 160
    },
    {
        "Altitude(m)": 558144.8083536709,
        "Argument of Periapsis(deg)": 0.0059258341516910265,
        "Eccentricity": 0.0,
        "Inclination(deg)": 53.0,
        "Latitude(deg)": -17.62924609613164,
        "Longitude(deg)": 5.534027520992892,
        "Mean Anomaly(deg)": -22.071169539535816,
        "RAAN(deg)": 119.99118090868295,
        "Satellite Name": "Starlink Shell 1 548",
        "Satellite Number": 548,
        "Semi-Major Axis(m)": 6931778.249405717,
        "Time(s)": 170
    },
    {
        "Altitude(m)": 557995.99917072,
        "Argument of Periapsis(deg)": 0.006274412631202263,
        "Eccentricity": 0.0,
        "Inclination(deg)": 53.0,
        "Latitude(deg)": -17.140247563796233,
        "Longitude(deg)": 5.905682512132611,
        "Mean Anomaly(deg)": -21.44433833597912,
        "RAAN(deg)": 119.99066213860549,
        "Satellite Name": "Starlink Shell 1 548",
        "Satellite Number": 548,
        "Semi-Major Axis(m)": 6931778.249405717,
        "Time(s)": 180
    }
]